start=new Date('2023-06-10T00:00:00.000Z').valueOf();
sats=[{"SEMIMAJOR_AXIS":"6903.617","PERIOD":"95.143","RCS_SIZE":"LARGE","CENTER_NAME":"EARTH","NORAD_CAT_ID":"56345","MEAN_MOTION_DOT":"-0.00860391","ECCENTRICITY":"0.00019140","DECAY_DATE":null,"OBJECT_ID":"2023-058AE","ELEMENT_SET_NO":"999","PERIAPSIS":"524.160","OBJECT_NAME":"STARLINK-5979","APOAPSIS":"526.803","GP_ID":"233583503","SITE":"AFWTR","FILE":"3929125","BSTAR":"-0.05167000000000","MEAN_MOTION_DDOT":"0.0000000000000","ARG_OF_PERICENTER":"86.2397","LAUNCH_DATE":"2023-04-27","MEAN_MOTION":"15.13518536","REV_AT_EPOCH":"130","OBJECT_TYPE":"PAYLOAD","CLASSIFICATION_TYPE":"U","TLE_LINE1":"1 56345U 23058AE  23160.83334491 -.00860391  00000-0 -51670-1 0  9997","EPOCH":"2023-06-09T20:00:01.000224","MEAN_ANOMALY":"53.3698","MEAN_ELEMENT_THEORY":"SGP4","TIME_SYSTEM":"UTC","RA_OF_ASC_NODE":"161.9883","EPHEMERIS_TYPE":"0","TLE_LINE2":"2 56345  97.6550 161.9883 0001914  86.2397  53.3698 15.13518536  1309","COUNTRY_CODE":"US","REF_FRAME":"TEME","INCLINATION":"97.6550"},{"OBJECT_NAME":"STARLINK-5837","APOAPSIS":"527.729","PERIAPSIS":"525.115","ELEMENT_SET_NO":"999","DECAY_DATE":null,"OBJECT_ID":"2023-058AF","NORAD_CAT_ID":"56346","ECCENTRICITY":"0.00018930","MEAN_MOTION_DOT":"-0.00862534","SEMIMAJOR_AXIS":"6904.557","CENTER_NAME":"EARTH","RCS_SIZE":"LARGE","PERIOD":"95.162","COUNTRY_CODE":"US","REF_FRAME":"TEME","EPHEMERIS_TYPE":"0","TLE_LINE2":"2 56346  97.6551 161.9791 0001893  88.5565  30.0468 15.13209393  1302","INCLINATION":"97.6551","MEAN_ELEMENT_THEORY":"SGP4","MEAN_ANOMALY":"30.0468","TIME_SYSTEM":"UTC","EPOCH":"2023-06-09T20:00:01.000224","TLE_LINE1":"1 56346U 23058AF  23160.83334491 -.00862534  00000-0 -52260-1 0  9995","CLASSIFICATION_TYPE":"U","RA_OF_ASC_NODE":"161.9791","MEAN_MOTION":"15.13209393","REV_AT_EPOCH":"130","LAUNCH_DATE":"2023-04-27","OBJECT_TYPE":"PAYLOAD","SITE":"AFWTR","GP_ID":"233583116","ARG_OF_PERICENTER":"88.5565","FILE":"3929125","BSTAR":"-0.05226000000000","MEAN_MOTION_DDOT":"0.0000000000000"},{"DECAY_DATE":null,"OBJECT_ID":"2023-058AG","PERIAPSIS":"524.075","ELEMENT_SET_NO":"999","OBJECT_NAME":"STARLINK-5829","APOAPSIS":"526.773","SEMIMAJOR_AXIS":"6903.559","PERIOD":"95.141","CENTER_NAME":"EARTH","RCS_SIZE":"LARGE","NORAD_CAT_ID":"56347","MEAN_MOTION_DOT":"-0.00862813","ECCENTRICITY":"0.00019540","CLASSIFICATION_TYPE":"U","TLE_LINE1":"1 56347U 23058AG  23160.83334491 -.00862813  00000-0 -51798-1 0  9991","EPOCH":"2023-06-09T20:00:01.000224","MEAN_ELEMENT_THEORY":"SGP4","MEAN_ANOMALY":"49.5147","TIME_SYSTEM":"UTC","RA_OF_ASC_NODE":"161.9890","EPHEMERIS_TYPE":"0","TLE_LINE2":"2 56347  97.6549 161.9890 0001954  91.7780  49.5147 15.13537543  1303","COUNTRY_CODE":"US","REF_FRAME":"TEME","INCLINATION":"97.6549","GP_ID":"233583568","SITE":"AFWTR","BSTAR":"-0.05179800000000","FILE":"3929125","MEAN_MOTION_DDOT":"0.0000000000000","ARG_OF_PERICENTER":"91.7780","LAUNCH_DATE":"2023-04-27","MEAN_MOTION":"15.13537543","REV_AT_EPOCH":"130","OBJECT_TYPE":"PAYLOAD"},{"RCS_SIZE":"LARGE","CENTER_NAME":"EARTH","PERIOD":"95.149","SEMIMAJOR_AXIS":"6903.915","ECCENTRICITY":"0.00019180","MEAN_MOTION_DOT":"-0.00858693","NORAD_CAT_ID":"56348","PERIAPSIS":"524.456","ELEMENT_SET_NO":"999","OBJECT_ID":"2023-058AH","DECAY_DATE":null,"APOAPSIS":"527.104","OBJECT_NAME":"STARLINK-5888","ARG_OF_PERICENTER":"86.5222","MEAN_MOTION_DDOT":"0.0000000000000","BSTAR":"-0.05170300000000","FILE":"3929125","SITE":"AFWTR","GP_ID":"233583181","OBJECT_TYPE":"PAYLOAD","REV_AT_EPOCH":"130","MEAN_MOTION":"15.13420401","LAUNCH_DATE":"2023-04-27","RA_OF_ASC_NODE":"161.9854","TIME_SYSTEM":"UTC","MEAN_ELEMENT_THEORY":"SGP4","MEAN_ANOMALY":"46.4977","CLASSIFICATION_TYPE":"U","TLE_LINE1":"1 56348U 23058AH  23160.83334491 -.00858693  00000-0 -51703-1 0  9999","EPOCH":"2023-06-09T20:00:01.000224","INCLINATION":"97.6550","REF_FRAME":"TEME","COUNTRY_CODE":"US","TLE_LINE2":"2 56348  97.6550 161.9854 0001918  86.5222  46.4977 15.13420401  1300","EPHEMERIS_TYPE":"0"},{"RA_OF_ASC_NODE":"162.0009","EPOCH":"2023-06-09T20:00:01.000224","TLE_LINE1":"1 56349U 23058AJ  23160.83334491 -.00861708  00000-0 -51141-1 0  9997","CLASSIFICATION_TYPE":"U","MEAN_ELEMENT_THEORY":"SGP4","MEAN_ANOMALY":"81.6067","TIME_SYSTEM":"UTC","INCLINATION":"97.6549","EPHEMERIS_TYPE":"0","TLE_LINE2":"2 56349  97.6549 162.0009 0001974  86.8810  81.6067 15.13942149  1300","COUNTRY_CODE":"US","REF_FRAME":"TEME","FILE":"3929125","BSTAR":"-0.05114100000000","MEAN_MOTION_DDOT":"0.0000000000000","ARG_OF_PERICENTER":"86.8810","GP_ID":"233583244","SITE":"AFWTR","OBJECT_TYPE":"PAYLOAD","LAUNCH_DATE":"2023-04-27","MEAN_MOTION":"15.13942149","REV_AT_EPOCH":"130","DECAY_DATE":null,"OBJECT_ID":"2023-058AJ","ELEMENT_SET_NO":"999","PERIAPSIS":"522.831","APOAPSIS":"525.556","OBJECT_NAME":"STARLINK-5887","PERIOD":"95.116","RCS_SIZE":"LARGE","CENTER_NAME":"EARTH","SEMIMAJOR_AXIS":"6902.329","ECCENTRICITY":"0.00019740","MEAN_MOTION_DOT":"-0.00861708","NORAD_CAT_ID":"56349"},{"SITE":"AFWTR","GP_ID":"233583376","ARG_OF_PERICENTER":"85.9156","BSTAR":"-0.05146700000000","FILE":"3929125","MEAN_MOTION_DDOT":"0.0000000000000","MEAN_MOTION":"15.13747175","REV_AT_EPOCH":"130","LAUNCH_DATE":"2023-04-27","OBJECT_TYPE":"PAYLOAD","MEAN_ELEMENT_THEORY":"SGP4","MEAN_ANOMALY":"69.4707","TIME_SYSTEM":"UTC","CLASSIFICATION_TYPE":"U","TLE_LINE1":"1 56350U 23058AK  23160.83334491 -.00862405  00000-0 -51467-1 0  9995","EPOCH":"2023-06-09T20:00:01.000224","RA_OF_ASC_NODE":"161.9951","COUNTRY_CODE":"US","REF_FRAME":"TEME","EPHEMERIS_TYPE":"0","TLE_LINE2":"2 56350  97.6550 161.9951 0001992  85.9156  69.4707 15.13747175  1308","INCLINATION":"97.6550","SEMIMAJOR_AXIS":"6902.922","RCS_SIZE":"LARGE","CENTER_NAME":"EARTH","PERIOD":"95.128","NORAD_CAT_ID":"56350","MEAN_MOTION_DOT":"-0.00862405","ECCENTRICITY":"0.00019920","PERIAPSIS":"523.412","ELEMENT_SET_NO":"999","DECAY_DATE":null,"OBJECT_ID":"2023-058AK","OBJECT_NAME":"STARLINK-5886","APOAPSIS":"526.162"},{"MEAN_MOTION_DDOT":"0.0000000000000","FILE":"3929125","BSTAR":"-0.05108900000000","ARG_OF_PERICENTER":"89.6752","GP_ID":"233583309","SITE":"AFWTR","OBJECT_TYPE":"PAYLOAD","LAUNCH_DATE":"2023-04-27","REV_AT_EPOCH":"130","MEAN_MOTION":"15.13977713","RA_OF_ASC_NODE":"162.0021","CLASSIFICATION_TYPE":"U","TLE_LINE1":"1 56351U 23058AL  23160.83334491 -.00861694  00000-0 -51089-1 0  9995","EPOCH":"2023-06-09T20:00:01.000224","TIME_SYSTEM":"UTC","MEAN_ANOMALY":"81.5632","MEAN_ELEMENT_THEORY":"SGP4","INCLINATION":"97.6549","TLE_LINE2":"2 56351  97.6549 162.0021 0001964  89.6752  81.5632 15.13977713  1304","EPHEMERIS_TYPE":"0","REF_FRAME":"TEME","COUNTRY_CODE":"US","PERIOD":"95.114","CENTER_NAME":"EARTH","RCS_SIZE":"LARGE","SEMIMAJOR_AXIS":"6902.221","MEAN_MOTION_DOT":"-0.00861694","ECCENTRICITY":"0.00019640","NORAD_CAT_ID":"56351","OBJECT_ID":"2023-058AL","DECAY_DATE":null,"PERIAPSIS":"522.730","ELEMENT_SET_NO":"999","APOAPSIS":"525.441","OBJECT_NAME":"STARLINK-5891"},{"RCS_SIZE":"LARGE","CENTER_NAME":"EARTH","PERIOD":"95.135","SEMIMAJOR_AXIS":"6903.256","ECCENTRICITY":"0.00019770","MEAN_MOTION_DOT":"-0.00861987","NORAD_CAT_ID":"56352","PERIAPSIS":"523.757","ELEMENT_SET_NO":"999","OBJECT_ID":"2023-058AM","DECAY_DATE":null,"APOAPSIS":"526.486","OBJECT_NAME":"STARLINK-5885","ARG_OF_PERICENTER":"85.2466","MEAN_MOTION_DDOT":"0.0000000000000","BSTAR":"-0.05160000000000","FILE":"3929125","SITE":"AFWTR","GP_ID":"233583441","OBJECT_TYPE":"PAYLOAD","REV_AT_EPOCH":"130","MEAN_MOTION":"15.13637073","LAUNCH_DATE":"2023-04-27","RA_OF_ASC_NODE":"161.9919","TIME_SYSTEM":"UTC","MEAN_ELEMENT_THEORY":"SGP4","MEAN_ANOMALY":"62.8108","TLE_LINE1":"1 56352U 23058AM  23160.83334491 -.00861987  00000-0 -51600-1 0  9990","CLASSIFICATION_TYPE":"U","EPOCH":"2023-06-09T20:00:01.000224","INCLINATION":"97.6550","REF_FRAME":"TEME","COUNTRY_CODE":"US","TLE_LINE2":"2 56352  97.6550 161.9919 0001977  85.2466  62.8108 15.13637073  1301","EPHEMERIS_TYPE":"0"},{"APOAPSIS":"523.069","OBJECT_NAME":"STARLINK-5874","OBJECT_ID":"2023-058AN","DECAY_DATE":null,"PERIAPSIS":"520.407","ELEMENT_SET_NO":"999","ECCENTRICITY":"0.00019290","MEAN_MOTION_DOT":"-0.00855579","NORAD_CAT_ID":"56353","PERIOD":"95.065","RCS_SIZE":"LARGE","CENTER_NAME":"EARTH","SEMIMAJOR_AXIS":"6899.873","INCLINATION":"97.6548","TLE_LINE2":"2 56353  97.6548 162.0248 0001929  93.4077 129.8117 15.14750648  1301","EPHEMERIS_TYPE":"0","REF_FRAME":"TEME","COUNTRY_CODE":"US","RA_OF_ASC_NODE":"162.0248","TLE_LINE1":"1 56353U 23058AN  23160.83334491 -.00855579  00000-0 -49606-1 0  9994","EPOCH":"2023-06-09T20:00:01.000224","CLASSIFICATION_TYPE":"U","TIME_SYSTEM":"UTC","MEAN_ANOMALY":"129.8117","MEAN_ELEMENT_THEORY":"SGP4","OBJECT_TYPE":"PAYLOAD","LAUNCH_DATE":"2023-04-27","REV_AT_EPOCH":"130","MEAN_MOTION":"15.14750648","MEAN_MOTION_DDOT":"0.0000000000000","BSTAR":"-0.04960600000000","FILE":"3929125","ARG_OF_PERICENTER":"93.4077","GP_ID":"233583504","SITE":"AFWTR"},{"PERIOD":"95.122","CENTER_NAME":"EARTH","RCS_SIZE":"LARGE","SEMIMAJOR_AXIS":"6902.635","MEAN_MOTION_DOT":"-0.00862018","ECCENTRICITY":"0.00019620","NORAD_CAT_ID":"56354","DECAY_DATE":null,"OBJECT_ID":"2023-058AP","PERIAPSIS":"523.145","ELEMENT_SET_NO":"999","APOAPSIS":"525.854","OBJECT_NAME":"STARLINK-5877","FILE":"3929125","BSTAR":"-0.05130600000000","MEAN_MOTION_DDOT":"0.0000000000000","ARG_OF_PERICENTER":"89.8052","GP_ID":"233583117","SITE":"AFWTR","OBJECT_TYPE":"PAYLOAD","LAUNCH_DATE":"2023-04-27","MEAN_MOTION":"15.13841576","REV_AT_EPOCH":"130","RA_OF_ASC_NODE":"161.9980","TLE_LINE1":"1 56354U 23058AP  23160.83334491 -.00862018  00000-0 -51306-1 0  9991","CLASSIFICATION_TYPE":"U","EPOCH":"2023-06-09T20:00:01.000224","MEAN_ANOMALY":"71.9466","MEAN_ELEMENT_THEORY":"SGP4","TIME_SYSTEM":"UTC","INCLINATION":"97.6550","EPHEMERIS_TYPE":"0","TLE_LINE2":"2 56354  97.6550 161.9980 0001962  89.8052  71.9466 15.13841576  1309","COUNTRY_CODE":"US","REF_FRAME":"TEME"}];
